{
  "type": "FeatureCollection",
  "features": [
    {
      "type": "Feature",
      "properties": {
        "norad_id": 66643,
        "name": "STARLINK-35918",
        "group": "last-30-days",
        "lat": 53.135329237446285,
        "lon": -73.00933330663227,
        "alt_km": 380.48403793833586,
        "timestamp": "2025-12-10T11:33:52.173230+00:00",
        "meta_object_name": "STARLINK-35918",
        "meta_object_id": "2025-271AC",
        "meta_epoch": "2025-12-10T04:00:01.998720",
        "meta_mean_motion": 15.61167463,
        "meta_eccentricity": 0.0001078,
        "meta_inclination": 53.1596,
        "meta_ra_of_asc_node": 199.5527,
        "meta_arg_of_pericenter": 81.5624,
        "meta_mean_anomaly": 36.3192,
        "meta_ephemeris_type": 0,
        "meta_classification_type": "U",
        "meta_norad_cat_id": 66643,
        "meta_element_set_no": 999,
        "meta_rev_at_epoch": 383,
        "meta_bstar": -0.026521,
        "meta_mean_motion_dot": -0.02005002,
        "meta_mean_motion_ddot": 0,
        "tle_line1": "1 66643U 25271AC  25344.16668980 -.02005002  00000+0 -26521-1 0  9991",
        "tle_line2": "2 66643  53.1596 199.5527 0001078  81.5624  36.3192 15.61167463  3834"
      },
      "geometry": {
        "type": "Point",
        "coordinates": [
          -73.00933330663227,
          53.135329237446285
        ]
      }
    },
    {
      "type": "Feature",
      "properties": {
        "norad_id": 66644,
        "name": "STARLINK-35938",
        "group": "last-30-days",
        "lat": 53.12002327600382,
        "lon": -69.81352560907827,
        "alt_km": 380.473306350902,
        "timestamp": "2025-12-10T11:33:52.173239+00:00",
        "meta_object_name": "STARLINK-35938",
        "meta_object_id": "2025-271AD",
        "meta_epoch": "2025-12-10T04:00:01.998720",
        "meta_mean_motion": 15.61167156,
        "meta_eccentricity": 0.0001091,
        "meta_inclination": 53.1596,
        "meta_ra_of_asc_node": 199.5485,
        "meta_arg_of_pericenter": 83.9716,
        "meta_mean_anomaly": 35.8265,
        "meta_ephemeris_type": 0,
        "meta_classification_type": "U",
        "meta_norad_cat_id": 66644,
        "meta_element_set_no": 999,
        "meta_rev_at_epoch": 383,
        "meta_bstar": -0.026496,
        "meta_mean_motion_dot": -0.02003284,
        "meta_mean_motion_ddot": 0,
        "tle_line1": "1 66644U 25271AD  25344.16668980 -.02003284  00000+0 -26496-1 0  9993",
        "tle_line2": "2 66644  53.1596 199.5485 0001091  83.9716  35.8265 15.61167156  3835"
      },
      "geometry": {
        "type": "Point",
        "coordinates": [
          -69.81352560907827,
          53.12002327600382
        ]
      }
    },
    {
      "type": "Feature",
      "properties": {
        "norad_id": 66645,
        "name": "SHENZHOU-22",
        "group": "last-30-days",
        "lat": 31.206698681299546,
        "lon": 73.72462685008036,
        "alt_km": 380.6856936691347,
        "timestamp": "2025-12-10T11:33:52.173250+00:00",
        "meta_object_name": "SHENZHOU-22",
        "meta_object_id": "2025-272A",
        "meta_epoch": "2025-12-09T13:49:14.456064",
        "meta_mean_motion": 15.58965688,
        "meta_eccentricity": 0.00089597,
        "meta_inclination": 41.4682,
        "meta_ra_of_asc_node": 35.9133,
        "meta_arg_of_pericenter": 5.1145,
        "meta_mean_anomaly": 354.9784,
        "meta_ephemeris_type": 0,
        "meta_classification_type": "U",
        "meta_norad_cat_id": 66645,
        "meta_element_set_no": 999,
        "meta_rev_at_epoch": 26300,
        "meta_bstar": 0.00041052725,
        "meta_mean_motion_dot": 0.00032682,
        "meta_mean_motion_ddot": 0,
        "tle_line1": "1 66645U 25272A   25343.57586176  .00032682  00000+0  41053-3 0  9993",
        "tle_line2": "2 66645  41.4682  35.9133 0008959   5.1145 354.9784 15.58965688263007"
      },
      "geometry": {
        "type": "Point",
        "coordinates": [
          73.72462685008036,
          31.206698681299546
        ]
      }
    },
    {
      "type": "Feature",
      "properties": {
        "norad_id": 66647,
        "name": "COSMOS 2597 (RODNIK-S 22)",
        "group": "last-30-days",
        "lat": 78.4362191750287,
        "lon": 67.76800764371617,
        "alt_km": 1497.0543052478497,
        "timestamp": "2025-12-10T11:33:52.173260+00:00",
        "meta_object_name": "COSMOS 2597 (RODNIK-S 22)",
        "meta_object_id": "2025-273A",
        "meta_epoch": "2025-12-10T05:14:02.266656",
        "meta_mean_motion": 12.41951285,
        "meta_eccentricity": 0.0007944,
        "meta_inclination": 82.4985,
        "meta_ra_of_asc_node": 288.0149,
        "meta_arg_of_pericenter": 295.1626,
        "meta_mean_anomaly": 64.8629,
        "meta_ephemeris_type": 0,
        "meta_classification_type": "U",
        "meta_norad_cat_id": 66647,
        "meta_element_set_no": 999,
        "meta_rev_at_epoch": 182,
        "meta_bstar": 0.00028185,
        "meta_mean_motion_dot": 4.8e-07,
        "meta_mean_motion_ddot": 0,
        "tle_line1": "1 66647U 25273A   25344.21808179  .00000048  00000+0  28185-3 0  9990",
        "tle_line2": "2 66647  82.4985 288.0149 0007944 295.1626  64.8629 12.41951285  1828"
      },
      "geometry": {
        "type": "Point",
        "coordinates": [
          67.76800764371617,
          78.4362191750287
        ]
      }
    },
    {
      "type": "Feature",
      "properties": {
        "norad_id": 66648,
        "name": "COSMOS 2598 (RODNIK-S 23)",
        "group": "last-30-days",
        "lat": 54.65840532608236,
        "lon": 97.15308344006219,
        "alt_km": 1493.0712731147714,
        "timestamp": "2025-12-10T11:33:52.173276+00:00",
        "meta_object_name": "COSMOS 2598 (RODNIK-S 23)",
        "meta_object_id": "2025-273B",
        "meta_epoch": "2025-12-10T05:05:59.353728",
        "meta_mean_motion": 12.42861567,
        "meta_eccentricity": 0.0007267,
        "meta_inclination": 82.5026,
        "meta_ra_of_asc_node": 288.0217,
        "meta_arg_of_pericenter": 257.2935,
        "meta_mean_anomaly": 102.7333,
        "meta_ephemeris_type": 0,
        "meta_classification_type": "U",
        "meta_norad_cat_id": 66648,
        "meta_element_set_no": 999,
        "meta_rev_at_epoch": 182,
        "meta_bstar": -2.8655e-05,
        "meta_mean_motion_dot": 6e-08,
        "meta_mean_motion_ddot": 0,
        "tle_line1": "1 66648U 25273B   25344.21249252  .00000006  00000+0 -28655-4 0  9990",
        "tle_line2": "2 66648  82.5026 288.0217 0007267 257.2935 102.7333 12.42861567  1820"
      },
      "geometry": {
        "type": "Point",
        "coordinates": [
          97.15308344006219,
          54.65840532608236
        ]
      }
    },
    {
      "type": "Feature",
      "properties": {
        "norad_id": 66649,
        "name": "COSMOS 2599 (RODNIK-S 24)",
        "group": "last-30-days",
        "lat": 80.36444510002556,
        "lon": -21.274530445815923,
        "alt_km": 1496.9588172115818,
        "timestamp": "2025-12-10T11:33:52.173288+00:00",
        "meta_object_name": "COSMOS 2599 (RODNIK-S 24)",
        "meta_object_id": "2025-273C",
        "meta_epoch": "2025-12-10T05:18:45.385632",
        "meta_mean_motion": 12.41671887,
        "meta_eccentricity": 0.0008146,
        "meta_inclination": 82.5026,
        "meta_ra_of_asc_node": 288.0284,
        "meta_arg_of_pericenter": 305.737,
        "meta_mean_anomaly": 54.2951,
        "meta_ephemeris_type": 0,
        "meta_classification_type": "U",
        "meta_norad_cat_id": 66649,
        "meta_element_set_no": 999,
        "meta_rev_at_epoch": 182,
        "meta_bstar": 0.000278,
        "meta_mean_motion_dot": 4.8e-07,
        "meta_mean_motion_ddot": 0,
        "tle_line1": "1 66649U 25273C   25344.22135863  .00000048  00000+0  27800-3 0  9999",
        "tle_line2": "2 66649  82.5026 288.0284 0008146 305.7370  54.2951 12.41671887  1824"
      },
      "geometry": {
        "type": "Point",
        "coordinates": [
          -21.274530445815923,
          80.36444510002556
        ]
      }
    },
    {
      "type": "Feature",
      "properties": {
        "norad_id": 66650,
        "name": "BEE-1000",
        "group": "last-30-days",
        "lat": 53.86308664276627,
        "lon": -99.02185645185556,
        "alt_km": 594.2787677203578,
        "timestamp": "2025-12-10T11:33:52.173301+00:00",
        "meta_object_name": "BEE-1000",
        "meta_object_id": "2025-274A",
        "meta_epoch": "2025-12-09T17:36:38.916000",
        "meta_mean_motion": 14.9164457,
        "meta_eccentricity": 0.0010439,
        "meta_inclination": 97.7385,
        "meta_ra_of_asc_node": 270.9766,
        "meta_arg_of_pericenter": 263.1107,
        "meta_mean_anomaly": 96.8924,
        "meta_ephemeris_type": 0,
        "meta_classification_type": "U",
        "meta_norad_cat_id": 66650,
        "meta_element_set_no": 999,
        "meta_rev_at_epoch": 195,
        "meta_bstar": 0.00029143,
        "meta_mean_motion_dot": 2.875e-05,
        "meta_mean_motion_ddot": 0,
        "tle_line1": "1 66650U 25274A   25343.73378375  .00002875  00000+0  29143-3 0  9996",
        "tle_line2": "2 66650  97.7385 270.9766 0010439 263.1107  96.8924 14.91644570  1952"
      },
      "geometry": {
        "type": "Point",
        "coordinates": [
          -99.02185645185556,
          53.86308664276627
        ]
      }
    }
  ]
}